COSMOS 2413 (712)       
1 28509U 04053B   15345.79438113  .00000100  00000-0  00000-0 0  9991
2 28509  63.1313 196.8071 0005546 159.5390 165.0974  2.13101839 85279
COSMOS 2419 (714)       
1 28915U 05050A   15347.42138968  .00000004  00000-0  00000+0 0  9999
2 28915  65.2410  84.4731 0014246 352.2655 138.9401  2.13113097 77576
COSMOS 2425 (716)       
1 29670U 06062A   15347.00936491 -.00000021  00000-0  10000-3 0  9998
2 29670  65.7116 323.4444 0022419 338.5448 259.4075  2.13104987 69764
COSMOS 2426 (717)       
1 29671U 06062B   15347.31321707 -.00000019  00000-0  10000-3 0  9998
2 29671  65.7284 323.5114 0016253 174.8702 158.4223  2.13103119 69779
COSMOS 2424 (715)       
1 29672U 06062C   15346.94073322 -.00000021  00000-0  10000-3 0  9997
2 29672  65.7137 323.4561 0015768 174.1864  50.2232  2.13102196 69766
COSMOS 2433 (720)       
1 32275U 07052A   15347.09337421  .00000002  00000-0  10000-3 0  9998
2 32275  65.2559  84.2514 0002654 229.5388 264.5753  2.13105002 63286
COSMOS 2432 (719)       
1 32276U 07052B   15347.09737387  .00000002  00000-0  10000-3 0  9994
2 32276  65.2681  84.3139 0010348 337.2443 114.2110  2.13104248 63284
COSMOS 2434 (721)       
1 32393U 07065A   15347.34510843 -.00000020  00000-0  00000+0 0  9998
2 32393  65.3311 322.8445 0001440 143.0993  77.7494  2.13102892 61998
COSMOS 2436 (723)       
1 32395U 07065C   15347.41209314 -.00000020  00000-0  10000-3 0  9991
2 32395  65.3441 322.8816 0017621 344.5508  19.6678  2.13102921 61930
COSMOS 2443 (725)       
1 33379U 08046B   15347.44473431  .00000003  00000-0  10000-3 0  9990
2 33379  65.1844  83.6743 0019330 183.5457 127.5205  2.13101517 56155
COSMOS 2456 (730)       
1 36111U 09070A   15346.80661956  .00000093  00000-0  00000+0 0  9999
2 36111  64.1863 202.4862 0003795 341.0970 355.2456  2.13103040 46648
COSMOS 2457 (733)       
1 36112U 09070B   15346.40644697  .00000095  00000-0  00000+0 0  9991
2 36112  64.1687 202.4314 0007090 150.7477   9.7477  2.13101666 46640
COSMOS 2458 (734)       
1 36113U 09070C   15346.67865537  .00000093  00000-0  10000-3 0  9992
2 36113  64.1736 202.4261 0002534  52.2452   4.2810  2.13101934 46654
COSMOS 2459 (731)       
1 36400U 10007A   15347.23364877  .00000002  00000-0  10000-3 0  9997
2 36400  65.1632  83.4212 0026986 353.7908 114.9724  2.13102345 45013
COSMOS 2461 (735)       
1 36401U 10007B   15346.76361571 -.00000001  00000-0  10000-3 0  9993
2 36401  65.1561  83.4202 0006185  86.7905 291.9351  2.13102318 45004
COSMOS 2460 (732)       
1 36402U 10007C   15347.12374792  .00000001  00000-0  10000-3 0  9993
2 36402  65.1463  83.3872 0001469 163.9219 173.2359  2.13102027 45001
COSMOS 2466 (738)       
1 37137U 10041A   15346.45654231 -.00000025  00000-0  10000-3 0  9998
2 37137  64.9154 323.0730 0019287 160.9628 321.8399  2.13102357 41070
COSMOS 2465 (737)       
1 37138U 10041B   15346.55325307 -.00000024  00000-0  00000+0 0  9993
2 37138  64.9320 323.1391 0034170 172.8156 206.6695  2.13102831 41072
COSMOS 2464 (736)       
1 37139U 10041C   15347.08026316 -.00000022  00000-0  00000+0 0  9999
2 37139  64.9341 323.1126 0021396   6.4638 191.9015  2.13102990 41084
COSMOS 2471 (701K)      
1 37372U 11009A   15347.44737192  .00000003  00000-0  00000+0 0  9992
2 37372  65.1440  83.3262 0008228 227.1953 130.1859  2.13102975 37284
COSMOS 2474 (742)       
1 37829U 11055A   15347.28041142  .00000090  00000-0  00000+0 0  9991
2 37829  64.5104 202.8050 0006189 250.9318 311.1294  2.13101967 32657
COSMOS 2476 (744)       
1 37867U 11064A   15346.27985618  .00000095  00000-0  00000+0 0  9991
2 37867  64.4909 202.9248 0014981 246.8292 313.3884  2.13102072 31987
COSMOS 2477 (745)       
1 37868U 11064B   15347.33096359  .00000090  00000-0  00000+0 0  9990
2 37868  64.4994 202.9276 0013085 248.1709 217.8390  2.13101981 31961
COSMOS 2475 (743)       
1 37869U 11064C   15346.79010932  .00000093  00000-0  00000+0 0  9996
2 37869  64.5064 202.9321 0018789 278.7854  88.3324  2.13102279 31967
COSMOS 2478 (746)       
1 37938U 11071A   15346.38107958 -.00000003  00000-0  00000+0 0  9993
2 37938  65.1705  83.5774 0014182 237.8617 144.1157  2.13088661 31563
COSMOS 2485 (747)       
1 39155U 13019A   15347.42155866  .00000090  00000-0  00000+0 0  9992
2 39155  64.6597 202.7955 0015208 240.6100 160.6875  2.13102153 20486
COSMOS 2492 (754)       
1 39620U 14012A   15344.55228927 -.00000018  00000-0  10000-3 0  9999
2 39620  65.0343  83.4889 0014097 332.3595  60.3226  2.13103622 13377
COSMOS 2500 (755)       
1 40001U 14032A   15346.64069911 -.00000002  00000-0  00000+0 0  9992
2 40001  64.9754  83.4567 0007255 197.2742 221.6567  2.13102937 11634
COSMOS 2501 (702K)      
1 40315U 14075A   15347.08041362 -.00000023  00000-0  00000+0 0  9999
2 40315  64.7021 324.6279 0018966 240.0043 318.4801  2.13101647  8043
